{"type": "FeatureCollection", "features": [ {"type": "Feature", "properties": {"norad_id": 30741, "name": "FENGYUN 1C DEB", "group": "fengyun-1c-debris", "lat": -12.748568254717105, "lon": 169.86937804949187, "alt_km": 850.6462147119737, "timestamp": "2025-12-08T10:52:03.226108+00:00", "meta": {"OBJECT_NAME": "FENGYUN 1C DEB", "OBJECT_ID": "1999-025ATB", "EPOCH": "2025-12-08T00:01:26.266944", "MEAN_MOTION": 14.13230012, "ECCENTRICITY": 0.00069385, "INCLINATION": 98.6797, "RA_OF_ASC_NODE": 351.4118, "ARG_OF_PERICENTER": 128.8068, "MEAN_ANOMALY": 286.5158, "EPHEMERIS_TYPE": 0, "CLASSIFICATION_TYPE": "U", "NORAD_CAT_ID": 30741, "ELEMENT_SET_NO": 999, "REV_AT_EPOCH": 96752, "BSTAR": 0.00022266393, "MEAN_MOTION_DOT": 3.74e-06, "MEAN_MOTION_DDOT": 0}, "tle": {"line1": "1 30741U 99025ATB 25342.00099846  .00000374  00000+0  22266-3 0  9996", "line2": "2 30741  98.6797 351.4118 0006938 128.8068 286.5158 14.13230012967526"}}, "geometry": {"type": "Point", "coordinates": [169.86937804949187, -12.748568254717105]}}, {"type": "Feature", "properties": {"norad_id": 30742, "name": "FENGYUN 1C DEB", "group": "fengyun-1c-debris", "lat": -54.61510235164496, "lon": -165.7538896026892, "alt_km": 814.0134738880952, "timestamp": "2025-12-08T10:52:03.226118+00:00", "meta": {"OBJECT_NAME": "FENGYUN 1C DEB", "OBJECT_ID": "1999-025ATC", "EPOCH": "2025-12-07T01:32:13.418880", "MEAN_MOTION": 14.10324644, "ECCENTRICITY": 0.0070834, "INCLINATION": 98.8678, "RA_OF_ASC_NODE": 25.5742, "ARG_OF_PERICENTER": 242.6981, "MEAN_ANOMALY": 145.7422, "EPHEMERIS_TYPE": 0, "CLASSIFICATION_TYPE": "U", "NORAD_CAT_ID": 30742, "ELEMENT_SET_NO": 999, "REV_AT_EPOCH": 95962, "BSTAR": 0.0025769233, "MEAN_MOTION_DOT": 4.639e-05, "MEAN_MOTION_DDOT": 0}, "tle": {"line1": "1 30742U 99025ATC 25341.06404420  .00004639  00000+0  25769-2 0  9998", "line2": "2 30742  98.8678  25.5742 0070834 242.6981 145.7422 14.10324644959628"}}, "geometry": {"type": "Point", "coordinates": [-165.7538896026892, -54.61510235164496]}}, {"type": "Feature", "properties": {"norad_id": 30744, "name": "FENGYUN 1C DEB", "group": "fengyun-1c-debris", "lat": -47.272169429489544, "lon": -61.45200350018774, "alt_km": 604.1262298033134, "timestamp": "2025-12-08T10:52:03.226128+00:00", "meta": {"OBJECT_NAME": "FENGYUN 1C DEB", "OBJECT_ID": "1999-025ATE", "EPOCH": "2025-12-07T21:31:37.060608", "MEAN_MOTION": 14.88831889, "ECCENTRICITY": 0.00104868, "INCLINATION": 98.7289, "RA_OF_ASC_NODE": 127.5108, "ARG_OF_PERICENTER": 285.9424, "MEAN_ANOMALY": 204.5138, "EPHEMERIS_TYPE": 0, "CLASSIFICATION_TYPE": "U", "NORAD_CAT_ID": 30744, "ELEMENT_SET_NO": 999, "REV_AT_EPOCH": 98016, "BSTAR": 0.0058844744, "MEAN_MOTION_DOT": 0.00055542, "MEAN_MOTION_DDOT": 0}, "tle": {"line1": "1 30744U 99025ATE 25341.89695672  .00055542  00000+0  58845-2 0  9992", "line2": "2 30744  98.7289 127.5108 0010486 285.9424 204.5138 14.88831889980165"}}, "geometry": {"type": "Point", "coordinates": [-61.45200350018774, -47.272169429489544]}}, {"type": "Feature", "properties": {"norad_id": 30746, "name": "FENGYUN 1C DEB", "group": "fengyun-1c-debris", "lat": -52.62199999376813, "lon": 174.94292252307258, "alt_km": 776.6712611735893, "timestamp": "2025-12-08T10:52:03.226138+00:00", "meta": {"OBJECT_NAME": "FENGYUN 1C DEB", "OBJECT_ID": "1999-025ATG", "EPOCH": "2025-12-07T18:23:04.276608", "MEAN_MOTION": 14.27498617, "ECCENTRICITY": 0.00463228, "INCLINATION": 99.0576, "RA_OF_ASC_NODE": 162.1792, "ARG_OF_PERICENTER": 332.7176, "MEAN_ANOMALY": 46.5456, "EPHEMERIS_TYPE": 0, "CLASSIFICATION_TYPE": "U", "NORAD_CAT_ID": 30746, "ELEMENT_SET_NO": 999, "REV_AT_EPOCH": 97375, "BSTAR": 0.00079189015, "MEAN_MOTION_DOT": 1.92e-05, "MEAN_MOTION_DDOT": 0}, "tle": {"line1": "1 30746U 99025ATG 25341.76602172  .00001920  00000+0  79189-3 0  9999", "line2": "2 30746  99.0576 162.1792 0046322 332.7176  46.5456 14.27498617973752"}}, "geometry": {"type": "Point", "coordinates": [174.94292252307258, -52.62199999376813]}}, {"type": "Feature", "properties": {"norad_id": 30749, "name": "FENGYUN 1C DEB", "group": "fengyun-1c-debris", "lat": 10.838063066648084, "lon": 7.664720138996294, "alt_km": 919.4690788119769, "timestamp": "2025-12-08T10:52:03.226148+00:00", "meta": {"OBJECT_NAME": "FENGYUN 1C DEB", "OBJECT_ID": "1999-025ATK", "EPOCH": "2025-12-07T12:30:51.647904", "MEAN_MOTION": 13.99834639, "ECCENTRICITY": 0.00550437, "INCLINATION": 98.8879, "RA_OF_ASC_NODE": 8.4769, "ARG_OF_PERICENTER": 247.0505, "MEAN_ANOMALY": 112.4846, "EPHEMERIS_TYPE": 0, "CLASSIFICATION_TYPE": "U", "NORAD_CAT_ID": 30749, "ELEMENT_SET_NO": 999, "REV_AT_EPOCH": 95893, "BSTAR": 0.00023798778, "MEAN_MOTION_DOT": 3.1e-06, "MEAN_MOTION_DDOT": 0}, "tle": {"line1": "1 30749U 99025ATK 25341.52143111  .00000310  00000+0  23799-3 0  9997", "line2": "2 30749  98.8879   8.4769 0055043 247.0505 112.4846 13.99834639958933"}}, "geometry": {"type": "Point", "coordinates": [7.664720138996294, 10.838063066648084]}}, {"type": "Feature", "properties": {"norad_id": 30750, "name": "FENGYUN 1C DEB", "group": "fengyun-1c-debris", "lat": -15.805716990276146, "lon": -125.6419731839252, "alt_km": 797.8973369703526, "timestamp": "2025-12-08T10:52:03.226158+00:00", "meta": {"OBJECT_NAME": "FENGYUN 1C DEB", "OBJECT_ID": "1999-025ATL", "EPOCH": "2025-12-07T03:50:24.592704", "MEAN_MOTION": 14.28530356, "ECCENTRICITY": 0.00410743, "INCLINATION": 98.9211, "RA_OF_ASC_NODE": 55.5853, "ARG_OF_PERICENTER": 116.0602, "MEAN_ANOMALY": 274.5313, "EPHEMERIS_TYPE": 0, "CLASSIFICATION_TYPE": "U", "NORAD_CAT_ID": 30750, "ELEMENT_SET_NO": 999, "REV_AT_EPOCH": 96702, "BSTAR": 0.0029312707, "MEAN_MOTION_DOT": 7.375e-05, "MEAN_MOTION_DDOT": 0}, "tle": {"line1": "1 30750U 99025ATL 25341.16000686  .00007375  00000+0  29313-2 0  9993", "line2": "2 30750  98.9211  55.5853 0041074 116.0602 274.5313 14.28530356967026"}}, "geometry": {"type": "Point", "coordinates": [-125.6419731839252, -15.805716990276146]}}, {"type": "Feature", "properties": {"norad_id": 30751, "name": "FENGYUN 1C DEB", "group": "fengyun-1c-debris", "lat": 44.46305494946395, "lon": -129.51211227953144, "alt_km": 803.5641770236743, "timestamp": "2025-12-08T10:52:03.226169+00:00", "meta": {"OBJECT_NAME": "FENGYUN 1C DEB", "OBJECT_ID": "1999-025ATM", "EPOCH": "2025-12-06T18:06:04.502592", "MEAN_MOTION": 14.1515557, "ECCENTRICITY": 0.00529262, "INCLINATION": 98.8553, "RA_OF_ASC_NODE": 40.0012, "ARG_OF_PERICENTER": 113.4159, "MEAN_ANOMALY": 12.2743, "EPHEMERIS_TYPE": 0, "CLASSIFICATION_TYPE": "U", "NORAD_CAT_ID": 30751, "ELEMENT_SET_NO": 999, "REV_AT_EPOCH": 96191, "BSTAR": 0.0025421234, "MEAN_MOTION_DOT": 4.961e-05, "MEAN_MOTION_DDOT": 0}, "tle": {"line1": "1 30751U 99025ATM 25340.75421878  .00004961  00000+0  25421-2 0  9992", "line2": "2 30751  98.8553  40.0012 0052926 113.4159  12.2743 14.15155570961910"}}, "geometry": {"type": "Point", "coordinates": [-129.51211227953144, 44.46305494946395]}}, {"type": "Feature", "properties": {"norad_id": 30753, "name": "FENGYUN 1C DEB", "group": "fengyun-1c-debris", "lat": -25.22126052980783, "lon": 25.30410447668182, "alt_km": 822.2086520201019, "timestamp": "2025-12-08T10:52:03.226217+00:00", "meta": {"OBJECT_NAME": "FENGYUN 1C DEB", "OBJECT_ID": "1999-025ATP", "EPOCH": "2025-12-07T19:41:16.111968", "MEAN_MOTION": 14.12619852, "ECCENTRICITY": 0.0055528, "INCLINATION": 98.8073, "RA_OF_ASC_NODE": 20.4946, "ARG_OF_PERICENTER": 9.3538, "MEAN_ANOMALY": 350.8655, "EPHEMERIS_TYPE": 0, "CLASSIFICATION_TYPE": "U", "NORAD_CAT_ID": 30753, "ELEMENT_SET_NO": 999, "REV_AT_EPOCH": 96282, "BSTAR": 0.0014948877, "MEAN_MOTION_DOT": 2.766e-05, "MEAN_MOTION_DDOT": 0}, "tle": {"line1": "1 30753U 99025ATP 25341.82032537  .00002766  00000+0  14949-2 0  9997", "line2": "2 30753  98.8073  20.4946 0055528   9.3538 350.8655 14.12619852962821"}}, "geometry": {"type": "Point", "coordinates": [25.30410447668182, -25.22126052980783]}}, {"type": "Feature", "properties": {"norad_id": 30755, "name": "FENGYUN 1C DEB", "group": "fengyun-1c-debris", "lat": -39.969969421721345, "lon": -15.873581491093038, "alt_km": 662.6852251942846, "timestamp": "2025-12-08T10:52:03.226230+00:00", "meta": {"OBJECT_NAME": "FENGYUN 1C DEB", "OBJECT_ID": "1999-025ATR", "EPOCH": "2025-12-07T17:01:51.888576", "MEAN_MOTION": 14.44913099, "ECCENTRICITY": 0.01510126, "INCLINATION": 98.2581, "RA_OF_ASC_NODE": 336.4115, "ARG_OF_PERICENTER": 284.5471, "MEAN_ANOMALY": 130.4589, "EPHEMERIS_TYPE": 0, "CLASSIFICATION_TYPE": "U", "NORAD_CAT_ID": 30755, "ELEMENT_SET_NO": 999, "REV_AT_EPOCH": 98372, "BSTAR": 0.001232503, "MEAN_MOTION_DOT": 4.891e-05, "MEAN_MOTION_DDOT": 0}, "tle": {"line1": "1 30755U 99025ATR 25341.70962834  .00004891  00000+0  12325-2 0  9995", "line2": "2 30755  98.2581 336.4115 0151012 284.5471 130.4589 14.44913099983722"}}, "geometry": {"type": "Point", "coordinates": [-15.873581491093038, -39.969969421721345]}}, {"type": "Feature", "properties": {"norad_id": 30756, "name": "FENGYUN 1C DEB", "group": "fengyun-1c-debris", "lat": -18.061839896073142, "lon": 52.76319476324115, "alt_km": 786.3594248784884, "timestamp": "2025-12-08T10:52:03.226240+00:00", "meta": {"OBJECT_NAME": "FENGYUN 1C DEB", "OBJECT_ID": "1999-025ATS", "EPOCH": "2025-12-07T02:55:05.602368", "MEAN_MOTION": 14.18229314, "ECCENTRICITY": 0.00709996, "INCLINATION": 98.9915, "RA_OF_ASC_NODE": 48.4552, "ARG_OF_PERICENTER": 332.4992, "MEAN_ANOMALY": 56.1761, "EPHEMERIS_TYPE": 0, "CLASSIFICATION_TYPE": "U", "NORAD_CAT_ID": 30756, "ELEMENT_SET_NO": 999, "REV_AT_EPOCH": 96325, "BSTAR": 0.0022218419, "MEAN_MOTION_DOT": 4.641e-05, "MEAN_MOTION_DDOT": 0}, "tle": {"line1": "1 30756U 99025ATS 25341.12159262  .00004641  00000+0  22218-2 0  9990", "line2": "2 30756  98.9915  48.4552 0070999 332.4992  56.1761 14.18229314963254"}}, "geometry": {"type": "Point", "coordinates": [52.76319476324115, -18.061839896073142]}}]}